[{"OBJECT_ID":"2016-039B","OBJECT_NAME":"ECHOSTAR 18","NORAD_CAT_ID":"41592","OBJECT_TYPE":"PAYLOAD","PERIOD":"1436.199","INCLINATION":"0.0123","APOGEE":"35799.420","PERIGEE":"35777.797","ECCENTRICITY":"0.0002564","MEAN_MOTION":"1.00264608","TLE_LINE1":"1 41592U 16039B   16233.27279032 -.00000288 +00000-0 +00000-0 0  9996","TLE_LINE2":"2 41592 000.0123 096.1757 0002564 067.5832 196.2493 01.00264608000654","LAUNCH_DATE":"2016-06-18","LAUNCH_SITE":"FRENCH GUIANA","OWNER":"UNITED STATES OF AMERICA","ORBIT_TYPE":"Geosynchronous","OPERATIONAL_STATUS":"Operational","satInfo":{"lng":-86.43207300933173,"lat":0.9868049484489686,"elevation":-7.60599012494307,"azimuth":41.43207300933172,"range":42546.49549602244,"height":35800.27123332598,"velocity":3.074261616689848},"x":-259,"y":-17,"dx":0.19131694076676226,"dy":-3.0683028396864813,"maxAlt":256,"minAlt":256},{"OBJECT_ID":"2016-050A","OBJECT_NAME":"JCSAT 16","NORAD_CAT_ID":"41729","OBJECT_TYPE":"PAYLOAD","PERIOD":"1436.074","INCLINATION":"0.0588","APOGEE":"35795.861","PERIGEE":"35776.465","ECCENTRICITY":"0.00023","MEAN_MOTION":"1.00273332","TLE_LINE1":"1 41729U 16050A   16238.84759331 -.00000228 +00000-0 +00000-0 0  9998","TLE_LINE2":"2 41729 000.0588 284.8956 0002300 245.1885 259.5796 01.00273332000178","LAUNCH_DATE":"2016-08-14","LAUNCH_SITE":"AIR FORCE EASTERN TEST RANGE","OWNER":"JAPAN","ORBIT_TYPE":"Geosynchronous","OPERATIONAL_STATUS":"Operational","satInfo":{"lng":-129.15292120255694,"lat":1.0013192766837782,"elevation":-7.587241779349052,"azimuth":84.15292120255691,"range":42567.19806095204,"height":35822.82163905019,"velocity":3.073156160231333},"x":-202,"y":161,"dx":-1.9403672375931877,"dy":-2.3831205946075773,"maxAlt":256,"minAlt":256}]